     3.05           N: GNSS NAV DATA    G: GPS              RINEX VERSION / TYPE
BNC 2.13.0          BKG Frankfurt       20211216 092636 UTC PGM / RUN BY / DATE
Concatenated RINEX files (5)                                COMMENT
                                                            END OF HEADER
G10 2021 12 15 15 59 44-2.693901769820e-04-8.981260180010e-12 0.000000000000e+00
     0.000000000000e+00 1.718750000000e+00 4.271963658720e-09-1.098652283600e+00
     1.396983861920e-07 7.321292185220e-03 8.566305041310e-06 5.153676601410e+03
     3.167840000000e+05 1.434236764910e-07 2.477549299990e-01 2.048909664150e-08
     9.719047905700e-01 2.176875000000e+02-2.559044675760e+00-7.804967965390e-09
     5.450227023830e-10 1.000000000000e+00 2.188000000000e+03 0.000000000000e+00
     2.000000000000e+00 0.000000000000e+00 2.328306436540e-09 0.000000000000e+00
     3.141180000000e+05 4.000000000000e+00                                      
G29 2021 12 15 15 59 44-4.543466493490e-04-5.002220859750e-12 0.000000000000e+00
     1.700000000000e+01-3.103125000000e+01 4.206603793360e-09-3.080868915150e+00
    -1.609325408940e-06 1.745756133460e-03 2.093613147740e-06 5.153774181370e+03
     3.167840000000e+05 5.401670932770e-08-1.769728674380e+00-1.303851604460e-08
     9.821902033190e-01 3.519375000000e+02 2.329827022970e+00-8.112123616800e-09
    -1.514348792990e-10 1.000000000000e+00 2.188000000000e+03 0.000000000000e+00
     2.000000000000e+00 0.000000000000e+00-1.024454832080e-08 1.700000000000e+01
     3.150660000000e+05 4.000000000000e+00                                      
G28 2021 12 15 15 59 44 4.425561055541e-04-7.617018127348e-12 0.000000000000e+00
     1.500000000000e+01 1.283125000000e+02 4.140886770269e-09-2.707639580491e+00
     6.550922989845e-06 1.718353910837e-02 5.790963768959e-06 5.153712799072e+03
     3.167840000000e+05 1.657754182816e-07-2.797805303067e+00 8.754432201386e-08
     9.705918084275e-01 2.724062500000e+02-1.302812051488e+00-7.702820853407e-09
     1.764359206929e-10 1.000000000000e+00 2.188000000000e+03 0.000000000000e+00
     2.000000000000e+00 6.300000000000e+01-1.117587000000e-08 1.500000000000e+01
     3.142200000000e+05 4.000000000000e+00                                      
G03 2021 12 15 15 59 44-4.263827577230e-05-1.239186531170e-11 0.000000000000e+00
     3.000000000000e+00 3.375000000000e+00 4.374825086170e-09-2.903698243490e-01
     1.806765794750e-07 3.863431978970e-03 8.925795555110e-06 5.153715433120e+03
     3.167840000000e+05 2.048909664150e-08 2.505620474290e-01 8.940696716310e-08
     9.720636210490e-01 2.186562500000e+02 9.925539919030e-01-7.891757294800e-09
     5.553802766750e-10 1.000000000000e+00 2.188000000000e+03 0.000000000000e+00
     2.000000000000e+00 0.000000000000e+00 1.862645149230e-09 3.000000000000e+00
     3.142080000000e+05 4.000000000000e+00                                      
G12 2021 12 15 16 00 00-1.411824487150e-04-5.570655048360e-12 0.000000000000e+00
     1.690000000000e+02 1.087812500000e+02 4.329108896190e-09-4.443777966100e-01
     5.686655640600e-06 8.449130808000e-03 6.252899765970e-06 5.153640703200e+03
     3.168000000000e+05-7.450580596920e-08-2.819928321220e+00 7.636845111850e-08
     9.714882699970e-01 2.652187500000e+02 1.233082410880e+00-8.183555163630e-09
     1.660783464010e-10 1.000000000000e+00 2.188000000000e+03 0.000000000000e+00
     2.000000000000e+00 0.000000000000e+00-1.257285475730e-08 1.690000000000e+02
     3.096180000000e+05 4.000000000000e+00                                      
G15 2021 12 15 16 00 00-9.895674884320e-05 2.842170943040e-12 0.000000000000e+00
     2.000000000000e+01-9.000000000000e+00 5.694522914020e-09 2.185397329820e+00
    -6.947666406630e-07 1.390991115480e-02 5.036592483520e-06 5.153704084400e+03
     3.168000000000e+05-1.862645149230e-08 1.174711678150e+00-3.036111593250e-07
     9.292829254150e-01 2.661250000000e+02 1.064007641970e+00-8.395349700010e-09
     2.714398779890e-11 1.000000000000e+00 2.188000000000e+03 0.000000000000e+00
     2.000000000000e+00 0.000000000000e+00-1.071020960810e-08 2.000000000000e+01
     3.096180000000e+05 4.000000000000e+00                                      
G02 2021 12 15 16 00 00-6.457478739320e-04-1.250555214940e-12 0.000000000000e+00
     2.800000000000e+01-1.180312500000e+02 4.205889477890e-09 1.062261432730e+00
    -6.305053830150e-06 2.057965379210e-02 8.432194590570e-06 5.153663700100e+03
     3.168000000000e+05-2.533197402950e-07-8.726093824720e-01-3.874301910400e-07
     9.648169276060e-01 2.225937500000e+02-1.471699078270e+00-8.207484731830e-09
    -6.928860043400e-11 1.000000000000e+00 2.188000000000e+03 0.000000000000e+00
     2.000000000000e+00 0.000000000000e+00-1.769512891770e-08 2.800000000000e+01
     3.096180000000e+05 4.000000000000e+00                                      
G18 2021 12 15 16 00 00 2.789981663230e-04-6.593836587850e-12 0.000000000000e+00
     1.320000000000e+02-9.659375000000e+01 4.068383750230e-09 1.088558134220e+00
    -4.965811967850e-06 2.093266346490e-03 8.549541234970e-06 5.153637331010e+03
     3.168000000000e+05 1.303851604460e-08-7.758976749550e-01 6.891787052150e-08
     9.702613381590e-01 2.201562500000e+02 3.086523598230e+00-7.811753962340e-09
    -1.678641350720e-11 1.000000000000e+00 2.188000000000e+03 0.000000000000e+00
     2.000000000000e+00 0.000000000000e+00-8.381903171540e-09 6.440000000000e+02
     3.096180000000e+05 4.000000000000e+00                                      
G20 2021 12 15 16 00 00 5.176295526330e-04-2.273736754430e-13 0.000000000000e+00
     5.600000000000e+01-5.937500000000e+00 4.882346226460e-09 1.992837312940e+00
    -3.762543201450e-07 5.415541119870e-03 9.702518582340e-06 5.153706539150e+03
     3.168000000000e+05 2.421438694000e-08 9.817695895010e-02 1.173466444020e-07
     9.412665710050e-01 1.793125000000e+02 3.065153078810e+00-8.113552247730e-09
     4.843058875700e-10 1.000000000000e+00 2.188000000000e+03 0.000000000000e+00
     2.000000000000e+00 0.000000000000e+00-8.381903171540e-09 5.600000000000e+01
     3.096180000000e+05 4.000000000000e+00                                      
G05 2021 12 15 16 00 00-6.450433284040e-05-1.250555214940e-12 0.000000000000e+00
     7.700000000000e+01-2.812500000000e-01 4.569833209040e-09-2.760754614710e+00
    -2.179294824600e-07 5.940010887570e-03 9.112060070040e-06 5.153630907060e+03
     3.168000000000e+05 1.136213541030e-07 2.110045801820e-01-9.499490261080e-08
     9.590686499500e-01 2.017812500000e+02 1.016436748360e+00-7.859255940980e-09
     5.732381633850e-10 1.000000000000e+00 2.188000000000e+03 0.000000000000e+00
     2.000000000000e+00 0.000000000000e+00-1.117587089540e-08 7.700000000000e+01
     3.096180000000e+05 4.000000000000e+00                                      
G25 2021 12 15 16 00 00 2.561607398090e-04 5.798028723800e-12 0.000000000000e+00
     8.200000000000e+01 1.056875000000e+02 4.592334146290e-09-6.519519465410e-01
     5.535781383510e-06 1.018153142650e-02 6.720423698430e-06 5.153742136000e+03
     3.168000000000e+05-4.284083843230e-08-2.895870892990e+00 1.452863216400e-07
     9.589247163660e-01 2.481875000000e+02 9.663800833690e-01-8.293916903500e-09
     9.036090675160e-11 1.000000000000e+00 2.188000000000e+03 0.000000000000e+00
     2.000000000000e+00 0.000000000000e+00 5.587935447690e-09 8.200000000000e+01
     3.096180000000e+05 4.000000000000e+00                                      
G11 2021 12 15 16 00 00 1.283921301360e-05-3.410605131650e-12 0.000000000000e+00
     2.170000000000e+02-1.040000000000e+02 4.158744656980e-09-3.068764877250e+00
    -5.245208740230e-06 3.522624028850e-04 9.266659617420e-06 5.153752733230e+03
     3.168000000000e+05-2.048909664150e-08-7.394268112490e-01-1.862645149230e-09
     9.615830623430e-01 1.974375000000e+02 2.700566010240e+00-7.895328872140e-09
     4.285892810350e-11 1.000000000000e+00 2.188000000000e+03 0.000000000000e+00
     8.192000000000e+03 6.300000000000e+01-8.847564458850e-09 2.170000000000e+02
     3.096180000000e+05 4.000000000000e+00                                      
G23 2021 12 15 16 00 00 2.158433198930e-05-4.092726157980e-12 0.000000000000e+00
     1.630000000000e+02-1.218750000000e+00 4.390897184210e-09 2.968714740940e-01
    -3.911554813390e-08 1.926700933840e-03 8.884817361830e-06 5.153692222600e+03
     3.168000000000e+05 0.000000000000e+00 2.232255257130e-01-3.352761268620e-08
     9.669552866660e-01 2.116562500000e+02 2.850948675470e+00-7.859255940980e-09
     5.278791311420e-10 1.000000000000e+00 2.188000000000e+03 0.000000000000e+00
     2.000000000000e+00 0.000000000000e+00-8.381903171540e-09 9.310000000000e+02
     3.096180000000e+05 4.000000000000e+00                                      
G24 2021 12 15 16 00 00 2.747653052210e-04 1.932676241270e-12 0.000000000000e+00
     8.700000000000e+01 2.375000000000e+00 5.103426863930e-09 1.204356274980e+00
     3.259629011150e-07 1.216603617650e-02 1.065991818900e-05 5.153706565860e+03
     3.168000000000e+05-1.695007085800e-07 2.269845550140e+00 1.117587089540e-07
     9.344462230930e-01 1.616250000000e+02 7.913390985870e-01-8.329989834660e-09
    -6.075253058680e-10 1.000000000000e+00 2.188000000000e+03 0.000000000000e+00
     2.800000000000e+00 0.000000000000e+00 2.328306436540e-09 8.700000000000e+01
     3.096180000000e+05 4.000000000000e+00                                      
